{"type":"FeatureCollection","features":[{"type":"Feature","properties":{"name":"Jujuy","kind":"provincia","fit":true},"geometry":{"type":"MultiPolygon","coordinates":[[[[-67.242025,-23.707367],[-66.720809,-24.161112],[-66.377543,-24.053754],[-66.319264,-23.573895],[-66.006632,-23.457559],[-65.998726,-23.956149],[-65.831871,-24.005997],[-65.637121,-24.420606],[-65.037111,-24.584834],[-64.862272,-24.372669],[-64.643382,-24.638567],[-64.179064,-24.266063],[-64.179064,-23.581402],[-64.908092,-23.425594],[-65.328509,-22.859766],[-65.233996,-22.097606],[-65.721706,-22.137649],[-66.23555,-21.805188],[-66.263565,-22.12452],[-66.652073,-22.169542],[-67.096326,-22.806054],[-67.242025,-23.707367]]]]}},{"type":"Feature","properties":{"name":"Salta","kind":"provincia","fit":true},"geometry":{"type":"MultiPolygon","coordinates":[[[[-67.270529,-23.7069],[-67.339941,-24.055287],[-68.320113,-24.476378],[-68.532196,-24.823413],[-68.476805,-25.141395],[-66.571406,-25.291403],[-66.872316,-25.912288],[-66.424436,-26.401976],[-66.190042,-26.149491],[-66.119423,-26.209253],[-65.721473,-26.370047],[-65.605805,-26.09128],[-65.07406,-26.237712],[-64.507434,-26.193533],[-64.240558,-25.702077],[-63.467366,-25.693435],[-62.342867,-24.430884],[-62.346745,-22.482564],[-62.829579,-22.010351],[-63.840336,-21.992339],[-64.390808,-22.903799],[-64.73959,-22.116071],[-65.233996,-22.097606],[-65.316366,-22.842884],[-64.908092,-23.425594],[-64.179064,-23.581402],[-64.179064,-24.266063],[-64.643382,-24.638567],[-64.905346,-24.368164],[-65.008101,-24.573918],[-65.637121,-24.420606],[-65.831871,-24.005997],[-65.99455,-23.927478],[-66.006632,-23.457559],[-66.333641,-23.58891],[-66.395294,-24.068288],[-66.720809,-24.161112],[-67.270529,-23.7069]]]]}},{"type":"Feature","properties":{"name":"Tucumán","kind":"provincia","fit":true},"geometry":{"type":"MultiPolygon","coordinates":[[[[-66.127181,-26.205314],[-66.191576,-26.625057],[-65.855802,-26.74878],[-66.09208,-27.232419],[-65.873603,-27.827095],[-65.748928,-27.799688],[-65.575351,-28.012127],[-65.114826,-27.913561],[-64.97967,-27.716923],[-64.991388,-27.32295],[-64.65399,-26.795306],[-64.507434,-26.193533],[-65.081909,-26.235674],[-65.608579,-26.095342],[-65.721473,-26.370047],[-66.127181,-26.205314]]]]}},{"type":"Feature","properties":{"name":"Formosa","kind":"provincia","fit":true},"geometry":{"type":"MultiPolygon","coordinates":[[[[-61.507497,-24.517108],[-60.289415,-25.500588],[-58.3509,-26.864923],[-57.504324,-25.41139],[-59.984407,-24.012628],[-61.255982,-23.571953],[-62.343943,-22.491127],[-62.343639,-24.092245],[-61.507497,-24.517108]]]]}},{"type":"Feature","properties":{"name":"Chaco","kind":"provincia","fit":true},"geometry":{"type":"MultiPolygon","coordinates":[[[[-62.342021,-24.090769],[-62.342867,-24.430884],[-63.462889,-25.690746],[-61.718022,-25.668329],[-61.711904,-27.791215],[-61.700202,-27.976364],[-58.867914,-28.007974],[-58.821365,-27.417518],[-58.604804,-27.221714],[-58.389682,-26.842884],[-59.937384,-25.754431],[-61.507497,-24.517108],[-62.342021,-24.090769]]]]}},{"type":"Feature","properties":{"name":"Corrientes","kind":"provincia","fit":true},"geometry":{"type":"MultiPolygon","coordinates":[[[[-58.821365,-27.417518],[-58.867914,-28.007974],[-59.124831,-28.158566],[-59.095067,-28.60145],[-59.543791,-29.343338],[-59.602034,-30.419088],[-58.605229,-30.157119],[-58.186922,-30.341757],[-57.829931,-30.790443],[-57.596251,-30.247716],[-55.649636,-28.149589],[-56.049177,-27.332715],[-56.80471,-27.566263],[-58.280616,-27.238684],[-58.604804,-27.221714],[-58.821365,-27.417518]]]]}},{"type":"Feature","properties":{"name":"Misiones","kind":"provincia","fit":true},"geometry":{"type":"MultiPolygon","coordinates":[[[[-56.049177,-27.332715],[-55.649636,-28.149589],[-55.307143,-27.948349],[-54.651785,-27.534926],[-53.829101,-27.150964],[-53.682691,-26.908761],[-53.792479,-26.690665],[-53.648218,-26.231842],[-53.843044,-25.997452],[-53.835701,-25.650734],[-54.097898,-25.532592],[-54.648868,-25.647986],[-54.81911,-26.628648],[-55.453553,-27.014401],[-55.760317,-27.429779],[-56.049177,-27.332715]]]]}},{"type":"Feature","properties":{"name":"Santiago del Estero","kind":"provincia","fit":true},"geometry":{"type":"MultiPolygon","coordinates":[[[[-65.174141,-27.953299],[-65.15686,-28.726442],[-64.858525,-29.57186],[-64.082391,-29.546039],[-62.841859,-29.847635],[-62.521783,-30.305278],[-62.14464,-30.444156],[-61.700202,-27.976364],[-61.718022,-25.668329],[-64.238205,-25.702277],[-64.507434,-26.193533],[-64.652799,-26.83247],[-64.992767,-27.349218],[-64.97967,-27.716923],[-65.174141,-27.953299]]]]}},{"type":"Feature","properties":{"name":"Santa Fe","kind":"provincia","fit":true},"geometry":{"type":"MultiPolygon","coordinates":[[[[-61.700202,-27.976364],[-62.14464,-30.444156],[-61.834936,-30.762408],[-62.229009,-31.720986],[-61.955997,-32.404722],[-61.806574,-33.022728],[-62.881421,-34.378039],[-61.712087,-34.394153],[-60.823966,-33.577637],[-60.451155,-33.629295],[-60.230772,-33.276324],[-60.551904,-33.113497],[-60.766322,-32.529465],[-60.596224,-31.734511],[-60.348997,-31.698238],[-59.75571,-30.907001],[-59.624818,-30.425969],[-59.543791,-29.343338],[-59.095067,-28.60145],[-59.124831,-28.158566],[-58.867914,-28.007974],[-61.700202,-27.976364]]]]}},{"type":"Feature","properties":{"name":"Entre Ríos","kind":"provincia","fit":true},"geometry":{"type":"MultiPolygon","coordinates":[[[[-59.608346,-30.438161],[-59.75571,-30.907001],[-60.348997,-31.698238],[-60.596224,-31.734511],[-60.766322,-32.529465],[-60.551904,-33.113497],[-60.230772,-33.276324],[-59.767682,-33.605275],[-59.326368,-33.727076],[-59.131033,-33.846585],[-58.769416,-33.949318],[-58.610906,-34.043773],[-58.419375,-34.007281],[-58.365437,-34.020055],[-58.516024,-33.668088],[-58.372213,-33.133063],[-58.085386,-33.059072],[-58.18933,-32.592928],[-58.063766,-32.298179],[-58.191133,-31.869257],[-58.039951,-31.784339],[-57.829931,-30.790443],[-58.186922,-30.341757],[-58.605229,-30.157119],[-59.608346,-30.438161]]]]}},{"type":"Feature","properties":{"name":"Buenos Aires","kind":"provincia","fit":true},"geometry":{"type":"MultiPolygon","coordinates":[[[[-62.881421,-34.378039],[-63.384092,-34.381427],[-63.385131,-40.691645],[-62.986187,-40.781103],[-62.776812,-41.033739],[-62.293277,-40.862913],[-62.145096,-40.602885],[-62.464854,-40.300218],[-62.145096,-39.846659],[-62.012514,-39.335816],[-62.519446,-38.742179],[-61.599169,-39.009327],[-58.518579,-38.571653],[-57.559306,-38.161963],[-57.036776,-37.391434],[-56.642521,-36.776992],[-56.739292,-36.315103],[-57.34269,-36.03941],[-57.126377,-35.383082],[-57.837932,-34.847601],[-58.334772,-34.628867],[-58.467707,-34.705333],[-58.535473,-34.644307],[-58.532599,-34.593724],[-58.509964,-34.543954],[-58.455685,-34.528609],[-58.495882,-34.450005],[-58.431214,-34.339724],[-58.308053,-34.188834],[-58.365437,-34.020055],[-58.419375,-34.007281],[-58.610906,-34.043773],[-58.769416,-33.949318],[-59.131033,-33.846585],[-59.326368,-33.727076],[-59.767682,-33.605275],[-60.230772,-33.276324],[-60.451155,-33.629295],[-60.823966,-33.577637],[-61.712087,-34.394153],[-62.881421,-34.378039]]]]}},{"type":"Feature","properties":{"name":"Córdoba","kind":"provincia","fit":true},"geometry":{"type":"MultiPolygon","coordinates":[[[[-63.386361,-35.007643],[-63.384092,-34.381427],[-62.881421,-34.378039],[-61.806574,-33.022728],[-61.955997,-32.404722],[-62.229009,-31.720986],[-61.834936,-30.762408],[-62.14464,-30.444156],[-62.514502,-30.326755],[-62.841859,-29.847635],[-64.082391,-29.546039],[-64.858525,-29.57186],[-64.988292,-29.575815],[-64.919109,-29.844966],[-65.133624,-30.055754],[-65.452128,-30.131708],[-65.810202,-31.097659],[-65.750788,-31.898905],[-65.241735,-32.074833],[-65.221476,-32.303505],[-64.879625,-32.32369],[-64.8858,-32.591987],[-65.151676,-33.184015],[-65.103266,-34.987389],[-63.386361,-35.007643]]]]}},{"type":"Feature","properties":{"name":"Catamarca","kind":"provincia","fit":true},"geometry":{"type":"MultiPolygon","coordinates":[[[[-68.499685,-25.12088],[-68.586478,-25.462344],[-68.399316,-26.182566],[-68.557205,-26.302939],[-68.588783,-26.500928],[-68.282078,-27.010335],[-68.799328,-27.149405],[-69.101365,-27.81184],[-68.547755,-27.784824],[-67.835232,-28.344073],[-67.234938,-28.370059],[-67.051873,-28.290354],[-66.571615,-28.297286],[-66.401831,-28.843793],[-65.824508,-29.215059],[-65.44547,-30.112041],[-65.133624,-30.055754],[-64.919109,-29.844966],[-64.988292,-29.575815],[-64.858525,-29.57186],[-65.15686,-28.726442],[-65.174141,-27.953299],[-65.575351,-28.012127],[-65.748928,-27.799688],[-65.873603,-27.827095],[-66.09208,-27.232419],[-65.855802,-26.74878],[-66.191576,-26.625057],[-66.127181,-26.205314],[-66.190042,-26.149491],[-66.424436,-26.401976],[-66.872316,-25.912288],[-66.571406,-25.291403],[-68.499685,-25.12088]]]]}},{"type":"Feature","properties":{"name":"La Rioja","kind":"provincia","fit":true},"geometry":{"type":"MultiPolygon","coordinates":[[[[-69.101365,-27.81184],[-69.156856,-27.97068],[-69.659136,-28.415522],[-69.32897,-28.437301],[-69.140144,-28.749142],[-68.892829,-28.864287],[-69.030293,-29.632669],[-68.372512,-29.669595],[-67.107907,-30.923578],[-67.082625,-31.412229],[-66.702023,-31.904797],[-65.750788,-31.898905],[-65.810202,-31.097659],[-65.44547,-30.112041],[-65.824508,-29.215059],[-66.401831,-28.843793],[-66.571615,-28.297286],[-67.051873,-28.290354],[-67.234938,-28.370059],[-67.835232,-28.344073],[-68.547755,-27.784824],[-69.101365,-27.81184]]]]}},{"type":"Feature","properties":{"name":"San Juan","kind":"provincia","fit":true},"geometry":{"type":"MultiPolygon","coordinates":[[[[-69.659136,-28.415522],[-70.029111,-29.332991],[-69.893662,-30.3564],[-70.140385,-30.411469],[-70.339681,-31.142046],[-70.502865,-31.136346],[-70.199348,-32.616944],[-69.703228,-32.496002],[-69.596355,-32.134781],[-69.134946,-31.998091],[-68.925959,-32.131307],[-68.916436,-32.314426],[-68.665694,-32.34279],[-68.484253,-32.263216],[-68.460273,-32.138104],[-67.967041,-32.092418],[-67.84832,-32.227745],[-67.491259,-32.247667],[-67.307469,-32.391468],[-67.374479,-31.878232],[-67.122132,-31.833287],[-66.702023,-31.904797],[-67.082625,-31.412229],[-67.107907,-30.923578],[-68.372512,-29.669595],[-69.030293,-29.632669],[-68.892829,-28.864287],[-69.140144,-28.749142],[-69.32897,-28.437301],[-69.659136,-28.415522]]]]}},{"type":"Feature","properties":{"name":"Mendoza","kind":"provincia","fit":true},"geometry":{"type":"MultiPolygon","coordinates":[[[[-70.199348,-32.616944],[-70.034411,-33.304571],[-69.797868,-33.306148],[-69.89679,-33.774195],[-69.816137,-34.239432],[-70.009237,-34.265569],[-70.014431,-34.418473],[-70.589714,-35.282574],[-70.446064,-36.141893],[-69.801862,-36.878606],[-69.751491,-37.081806],[-69.130571,-37.195873],[-69.014975,-37.373907],[-68.264274,-37.567584],[-68.285652,-35.995977],[-66.583275,-35.998469],[-66.515974,-34.940382],[-66.820331,-34.364323],[-66.675809,-33.950121],[-67.04335,-33.636243],[-67.204092,-32.937457],[-67.307469,-32.391468],[-67.491259,-32.247667],[-67.84832,-32.227745],[-67.967041,-32.092418],[-68.460273,-32.138104],[-68.484253,-32.263216],[-68.665694,-32.34279],[-68.916436,-32.314426],[-68.925959,-32.131307],[-69.134946,-31.998091],[-69.596355,-32.134781],[-69.703228,-32.496002],[-70.199348,-32.616944]]]]}},{"type":"Feature","properties":{"name":"San Luis","kind":"provincia","fit":true},"geometry":{"type":"MultiPolygon","coordinates":[[[[-67.399533,-31.869764],[-67.04335,-33.636243],[-66.675809,-33.950121],[-66.820331,-34.364323],[-66.515974,-34.940382],[-66.583275,-35.998469],[-65.122141,-36.004849],[-65.119658,-35.388305],[-65.103266,-34.987389],[-65.16758,-33.153014],[-64.8858,-32.591987],[-64.879625,-32.32369],[-65.221476,-32.303505],[-65.241735,-32.074833],[-65.750788,-31.898905],[-66.702023,-31.904797],[-67.122132,-31.833287],[-67.399533,-31.869764]]]]}},{"type":"Feature","properties":{"name":"La Pampa","kind":"provincia","fit":true},"geometry":{"type":"MultiPolygon","coordinates":[[[[-68.264274,-37.567584],[-67.806742,-37.625023],[-67.726872,-37.830911],[-67.871423,-38.02487],[-67.56914,-38.271204],[-67.205185,-38.226466],[-66.62863,-38.574419],[-66.597611,-38.700316],[-64.496416,-38.863102],[-63.929564,-39.071278],[-63.394876,-39.338129],[-63.386361,-35.007643],[-65.103266,-34.987389],[-65.122141,-36.004849],[-68.285652,-35.995977],[-68.264274,-37.567584]]]]}},{"type":"Feature","properties":{"name":"Río Negro","kind":"provincia","fit":true},"geometry":{"type":"MultiPolygon","coordinates":[[[[-63.394876,-39.338129],[-63.949428,-39.063827],[-64.496416,-38.863102],[-66.597611,-38.700316],[-66.62863,-38.574419],[-67.22555,-38.235704],[-67.56914,-38.271204],[-67.871423,-38.02487],[-67.726872,-37.830911],[-67.806742,-37.625023],[-68.264274,-37.567584],[-68.227176,-38.653199],[-68.066085,-38.966463],[-68.429997,-38.997853],[-69.943743,-39.924037],[-70.169565,-40.462233],[-71.068376,-40.683211],[-71.209855,-41.047697],[-71.873199,-41.046597],[-71.766481,-41.99044],[-65.077943,-41.995895],[-64.991896,-41.567421],[-65.176531,-40.921578],[-64.919647,-40.733273],[-63.851973,-41.151673],[-63.233846,-41.169805],[-62.784299,-41.012501],[-62.986187,-40.781103],[-63.402426,-40.678504],[-63.394876,-39.338129]]]]}},{"type":"Feature","properties":{"name":"Neuquén","kind":"provincia","fit":true},"geometry":{"type":"MultiPolygon","coordinates":[[[[-71.873199,-41.046597],[-71.209855,-41.047697],[-71.068376,-40.683211],[-70.169565,-40.462233],[-69.943743,-39.924037],[-68.429997,-38.997853],[-68.066085,-38.966463],[-68.227176,-38.653199],[-68.264274,-37.567584],[-69.014975,-37.373907],[-69.130571,-37.195873],[-69.751491,-37.081806],[-69.801862,-36.878606],[-70.446064,-36.141893],[-71.095573,-36.66943],[-71.214911,-37.571632],[-70.821823,-38.624461],[-71.42698,-38.897377],[-71.470921,-39.431878],[-71.859517,-40.468066],[-71.873199,-41.046597]]]]}},{"type":"Feature","properties":{"name":"Chubut","kind":"provincia","fit":true},"geometry":{"type":"MultiPolygon","coordinates":[[[[-71.795063,-41.985402],[-72.153109,-42.810252],[-71.800654,-44.312181],[-71.158423,-44.477426],[-71.716885,-44.785952],[-71.320171,-45.293655],[-71.794402,-45.549633],[-71.637186,-46.01784],[-67.597447,-46.000685],[-66.921904,-45.270639],[-65.666046,-45.043566],[-65.526506,-44.960079],[-65.751916,-44.807973],[-65.279628,-44.333888],[-65.344031,-43.731971],[-65.043483,-43.327298],[-64.367252,-42.9592],[-65.03275,-42.730971],[-64.61413,-42.478154],[-64.131108,-42.888461],[-63.658819,-42.786138],[-63.626618,-42.35136],[-63.798359,-42.073106],[-64.624864,-42.478154],[-64.52826,-42.232259],[-64.957613,-42.184555],[-65.077943,-41.995895],[-71.795063,-41.985402]]]]}},{"type":"Feature","properties":{"name":"Santa Cruz","kind":"provincia","fit":true},"geometry":{"type":"MultiPolygon","coordinates":[[[[-71.637522,-46.017396],[-71.928509,-46.922522],[-72.520674,-47.716977],[-72.570115,-48.785452],[-73.456668,-49.278933],[-73.179573,-50.768957],[-72.318276,-50.652199],[-71.949097,-52.001292],[-69.955155,-52.013051],[-68.369434,-52.322794],[-68.981421,-51.595461],[-69.177194,-50.951436],[-68.913105,-50.385947],[-67.836306,-50.02587],[-67.555424,-49.026976],[-65.756552,-47.967963],[-65.84264,-47.129377],[-66.822648,-47.034632],[-67.675618,-46.299864],[-67.597447,-46.000685],[-71.637522,-46.017396]]]]}},{"type":"Feature","properties":{"name":"Tierra del Fuego","kind":"provincia","fit":true},"geometry":{"type":"MultiPolygon","coordinates":[[[[-68.371437,-52.319955],[-68.636002,-54.888273],[-66.519389,-55.060604],[-65.359534,-54.912718],[-65.147815,-54.673902],[-66.602236,-54.428318],[-67.936989,-53.67176],[-68.371437,-52.319955]]]]}},{"type":"Feature","properties":{"name":"Islas del Atlántico Sur","kind":"isla","fit":false},"geometry":{"type":"MultiPolygon","coordinates":[[[[-61.051474,-52.053261],[-60.642808,-52.298043],[-60.322403,-52.156659],[-60.179845,-52.004804],[-59.892005,-52.006483],[-59.264751,-51.399838],[-59.790188,-51.421849],[-60.196128,-51.281098],[-60.693053,-51.362546],[-60.443228,-51.707122],[-60.502976,-51.928683],[-61.051474,-52.053261]]],[[[-59.787087,-52.243862],[-59.560923,-52.310664],[-58.601675,-52.076415],[-58.710858,-51.917959],[-58.336517,-51.908337],[-58.250731,-51.763769],[-57.775006,-51.63326],[-57.852994,-51.400314],[-58.336517,-51.37598],[-58.843437,-51.263878],[-59.131991,-51.473238],[-59.061802,-51.69131],[-59.475136,-51.81201],[-59.787087,-52.243862]]]]}},{"type":"Feature","properties":{"name":"Chile","kind":"pais","fit":false},"geometry":{"type":"MultiPolygon","coordinates":[[[[-66.654603,-55.034965],[-68.636002,-54.888273],[-68.373654,-52.32131],[-69.932898,-52.008877],[-71.949097,-52.001292],[-72.318276,-50.652199],[-73.179573,-50.768957],[-73.456668,-49.278933],[-72.570115,-48.785452],[-72.520674,-47.716977],[-71.928509,-46.922522],[-71.637186,-46.01784],[-71.794402,-45.549633],[-71.320171,-45.293655],[-71.716885,-44.785952],[-71.158423,-44.477426],[-71.800654,-44.312181],[-72.153109,-42.810252],[-71.766481,-41.99044],[-71.873199,-41.046597],[-71.859517,-40.468066],[-71.470921,-39.431878],[-71.42698,-38.897377],[-70.821823,-38.624461],[-71.214911,-37.571632],[-71.095573,-36.66943],[-70.446064,-36.141893],[-70.589714,-35.282574],[-70.014431,-34.418473],[-70.009237,-34.265569],[-69.816137,-34.239432],[-69.89679,-33.774195],[-69.797868,-33.306148],[-70.034411,-33.304571],[-70.199348,-32.616944],[-70.502865,-31.136346],[-70.339681,-31.142046],[-70.140385,-30.411469],[-69.893662,-30.3564],[-70.029111,-29.332991],[-69.659136,-28.415522],[-69.156856,-27.97068],[-69.101365,-27.81184],[-68.799328,-27.149405],[-68.282078,-27.010335],[-68.615234,-26.5141],[-68.551113,-26.283745],[-68.37797,-26.164536],[-68.586478,-25.462344],[-68.499685,-25.12088],[-68.560476,-24.809216],[-68.320113,-24.476378],[-67.339941,-24.055287],[-67.254435,-23.733594],[-67.096222,-22.831674],[-67.736109,-22.872585],[-69.512118,-17.46407],[-70.485531,-18.462795],[-70.605854,-24.358881],[-71.859358,-29.860808],[-71.462887,-32.926652],[-73.600009,-37.295047],[-74.324663,-43.306109],[-73.678951,-43.414447],[-72.923964,-41.813528],[-73.096876,-44.010715],[-74.169501,-44.511066],[-75.441287,-49.53575],[-73.251746,-53.81455],[-68.063415,-55.707829],[-66.654603,-55.034965]]]]}},{"type":"Feature","properties":{"name":"Uruguay","kind":"pais","fit":false},"geometry":{"type":"MultiPolygon","coordinates":[[[[-57.611087,-30.30785],[-57.829931,-30.790443],[-58.039951,-31.784339],[-58.191133,-31.869257],[-58.063766,-32.298179],[-58.18933,-32.592928],[-58.085386,-33.059072],[-58.372213,-33.133063],[-58.516024,-33.668088],[-58.308053,-34.188834],[-57.842793,-34.492221],[-57.123404,-34.456278],[-56.295016,-34.92232],[-55.019736,-34.949127],[-53.755355,-34.411328],[-53.376776,-33.741788],[-53.098073,-32.696278],[-53.902182,-31.965531],[-55.845314,-30.954989],[-56.7948,-30.103417],[-57.096829,-30.107457],[-57.247843,-30.28642],[-57.611087,-30.30785]]]]}},{"type":"Feature","properties":{"name":"Paraguay","kind":"pais","fit":false},"geometry":{"type":"MultiPolygon","coordinates":[[[[-58.604804,-27.221714],[-56.80471,-27.566263],[-56.043083,-27.30572],[-55.78491,-27.43799],[-55.477089,-27.014171],[-54.841588,-26.633137],[-54.648868,-25.647986],[-54.272295,-24.094083],[-54.65566,-23.798893],[-55.407581,-23.958164],[-55.618721,-22.607768],[-56.430342,-22.084804],[-58.009166,-22.057198],[-57.825581,-20.814136],[-58.217965,-19.774481],[-59.001755,-19.27397],[-61.699271,-19.633857],[-62.301308,-20.575982],[-62.259518,-21.134722],[-62.6429,-22.186675],[-61.255982,-23.571953],[-59.984407,-24.012628],[-57.504324,-25.41139],[-58.604804,-27.221714]]]]}},{"type":"Feature","properties":{"name":"Bolivia","kind":"pais","fit":false},"geometry":{"type":"MultiPolygon","coordinates":[[[[-69.586185,-17.450509],[-67.736109,-22.872585],[-67.096222,-22.831674],[-66.652073,-22.169542],[-66.263565,-22.12452],[-66.23555,-21.805188],[-65.721706,-22.137649],[-65.233996,-22.097606],[-64.73959,-22.116071],[-64.390808,-22.903799],[-63.840336,-21.992339],[-62.829579,-22.010351],[-62.6429,-22.186675],[-62.257905,-21.158899],[-62.301308,-20.575982],[-61.699271,-19.633857],[-59.001755,-19.27397],[-58.196692,-19.786241],[-57.670066,-17.662546],[-58.477259,-17.111068],[-58.423179,-16.21238],[-60.211035,-16.19111],[-60.421399,-13.849314],[-65.226533,-11.631054],[-65.419061,-9.679427],[-69.595495,-11.048047],[-68.651006,-12.36126],[-68.902745,-16.304644],[-69.586185,-17.450509]]]]}},{"type":"Feature","properties":{"name":"Brasil","kind":"pais","fit":false},"geometry":{"type":"MultiPolygon","coordinates":[[[[-57.636548,-30.299942],[-57.247843,-30.28642],[-57.096829,-30.107457],[-56.7948,-30.103417],[-55.796683,-30.99095],[-53.902182,-31.965531],[-53.098073,-32.696278],[-53.376776,-33.741788],[-52.493269,-32.962029],[-48.833034,-28.756034],[-48.621421,-25.805719],[-44.622132,-23.09647],[-41.718738,-22.634414],[-38.348451,-13.43872],[-34.717309,-8.390919],[-35.613829,-5.469798],[-40.008258,-2.496361],[-49.963937,-0.170396],[-51.373,4.58078],[-52.404663,2.31699],[-58.802392,0.810056],[-60.306617,4.441577],[-63.976477,3.497367],[-63.107745,1.735374],[-65.637165,0.641669],[-67.130651,1.628138],[-69.781223,1.288356],[-70.004782,-4.100478],[-74.018944,-7.065369],[-72.40077,-9.937723],[-69.615428,-11.02283],[-65.389667,-9.697313],[-65.226533,-11.631054],[-60.417519,-13.904931],[-60.212324,-16.18783],[-58.423163,-16.211101],[-58.477259,-17.111068],[-57.668655,-17.662744],[-58.217369,-19.738663],[-57.834577,-20.757112],[-57.993276,-22.005635],[-56.406088,-22.099469],[-55.618721,-22.607768],[-55.385964,-23.934545],[-54.65566,-23.798893],[-54.272295,-24.094083],[-54.678893,-25.673932],[-54.097898,-25.532592],[-53.835701,-25.650734],[-53.880472,-25.979835],[-53.648218,-26.231842],[-53.792479,-26.690665],[-53.663565,-26.884005],[-53.820636,-27.177155],[-54.695742,-27.555774],[-55.649636,-28.149589],[-57.636548,-30.299942]]]]}},{"type":"Feature","properties":{"name":"Ciudad de Buenos Aires","kind":"provincia","fit":true},"geometry":{"type":"MultiPolygon","coordinates":[[[[-58.535473,-34.644307],[-58.467707,-34.705333],[-58.334772,-34.628867],[-58.382319,-34.565733],[-58.455685,-34.528609],[-58.509964,-34.543954],[-58.532599,-34.593724],[-58.535473,-34.644307]]]]}}]}
